{
  "type": "FeatureCollection",
  "features": [
    {
      "type": "Feature",
      "properties": {
        "norad_id": 66793,
        "name": "STARLINK-36051",
        "group": "last-30-days",
        "lat": -1.792017042312282,
        "lon": -135.29443454108534,
        "alt_km": 341.8279945313552,
        "timestamp": "2025-12-16T21:38:55.918181+00:00",
        "meta_object_name": "STARLINK-36051",
        "meta_object_id": "2025-278C",
        "meta_epoch": "2025-12-16T06:00:02.999808",
        "meta_mean_motion": 15.77672729,
        "meta_eccentricity": 0.00017174,
        "meta_inclination": 42.998,
        "meta_ra_of_asc_node": 230.5966,
        "meta_arg_of_pericenter": 268.5855,
        "meta_mean_anomaly": 343.2829,
        "meta_ephemeris_type": 0,
        "meta_classification_type": "U",
        "meta_norad_cat_id": 66793,
        "meta_element_set_no": 999,
        "meta_rev_at_epoch": 342,
        "meta_bstar": -0.0081422124,
        "meta_mean_motion_dot": -0.01241831,
        "meta_mean_motion_ddot": 0,
        "tle_line1": "1 66793U 25278C   25350.25003472 -.01241831  00000+0 -81422-2 0  9993",
        "tle_line2": "2 66793  42.9980 230.5966 0001717 268.5855 343.2829 15.77672729  3424"
      },
      "geometry": {
        "type": "Point",
        "coordinates": [
          -135.29443454108534,
          -1.792017042312282
        ]
      }
    },
    {
      "type": "Feature",
      "properties": {
        "norad_id": 66794,
        "name": "STARLINK-36062",
        "group": "last-30-days",
        "lat": -3.143063485302283,
        "lon": -136.74410791424995,
        "alt_km": 341.6647574779845,
        "timestamp": "2025-12-16T21:38:55.918191+00:00",
        "meta_object_name": "STARLINK-36062",
        "meta_object_id": "2025-278D",
        "meta_epoch": "2025-12-16T06:00:02.999808",
        "meta_mean_motion": 15.77711266,
        "meta_eccentricity": 0.00018508,
        "meta_inclination": 42.9982,
        "meta_ra_of_asc_node": 230.6015,
        "meta_arg_of_pericenter": 272.7588,
        "meta_mean_anomaly": 337.0165,
        "meta_ephemeris_type": 0,
        "meta_classification_type": "U",
        "meta_norad_cat_id": 66794,
        "meta_element_set_no": 999,
        "meta_rev_at_epoch": 352,
        "meta_bstar": -0.0080589165,
        "meta_mean_motion_dot": -0.0123258,
        "meta_mean_motion_ddot": 0,
        "tle_line1": "1 66794U 25278D   25350.25003472 -.01232580  00000+0 -80589-2 0  9998",
        "tle_line2": "2 66794  42.9982 230.6015 0001850 272.7588 337.0165 15.77711266  3526"
      },
      "geometry": {
        "type": "Point",
        "coordinates": [
          -136.74410791424995,
          -3.143063485302283
        ]
      }
    },
    {
      "type": "Feature",
      "properties": {
        "norad_id": 66795,
        "name": "STARLINK-36047",
        "group": "last-30-days",
        "lat": -0.4048770682013244,
        "lon": -133.80999284694929,
        "alt_km": 341.90421182916634,
        "timestamp": "2025-12-16T21:38:55.918203+00:00",
        "meta_object_name": "STARLINK-36047",
        "meta_object_id": "2025-278E",
        "meta_epoch": "2025-12-16T06:00:02.999808",
        "meta_mean_motion": 15.77590405,
        "meta_eccentricity": 0.00017623,
        "meta_inclination": 42.9982,
        "meta_ra_of_asc_node": 230.5908,
        "meta_arg_of_pericenter": 270.9349,
        "meta_mean_anomaly": 343.1796,
        "meta_ephemeris_type": 0,
        "meta_classification_type": "U",
        "meta_norad_cat_id": 66795,
        "meta_element_set_no": 999,
        "meta_rev_at_epoch": 342,
        "meta_bstar": -0.0082425651,
        "meta_mean_motion_dot": -0.01251225,
        "meta_mean_motion_ddot": 0,
        "tle_line1": "1 66795U 25278E   25350.25003472 -.01251225  00000+0 -82426-2 0  9998",
        "tle_line2": "2 66795  42.9982 230.5908 0001762 270.9349 343.1796 15.77590405  3421"
      },
      "geometry": {
        "type": "Point",
        "coordinates": [
          -133.80999284694929,
          -0.4048770682013244
        ]
      }
    },
    {
      "type": "Feature",
      "properties": {
        "norad_id": 66796,
        "name": "STARLINK-35964",
        "group": "last-30-days",
        "lat": 39.75874604335176,
        "lon": -17.824393464749924,
        "alt_km": 319.25056690240217,
        "timestamp": "2025-12-16T21:38:55.918214+00:00",
        "meta_object_name": "STARLINK-35964",
        "meta_object_id": "2025-278F",
        "meta_epoch": "2025-12-16T06:00:02.999808",
        "meta_mean_motion": 15.85143515,
        "meta_eccentricity": 0.00014116,
        "meta_inclination": 42.9936,
        "meta_ra_of_asc_node": 229.437,
        "meta_arg_of_pericenter": 276.0467,
        "meta_mean_anomaly": 72.4776,
        "meta_ephemeris_type": 0,
        "meta_classification_type": "U",
        "meta_norad_cat_id": 66796,
        "meta_element_set_no": 999,
        "meta_rev_at_epoch": 336,
        "meta_bstar": -0.0099747977,
        "meta_mean_motion_dot": -0.02098792,
        "meta_mean_motion_ddot": 0,
        "tle_line1": "1 66796U 25278F   25350.25003472 -.02098792  00000+0 -99748-2 0  9993",
        "tle_line2": "2 66796  42.9936 229.4370 0001411 276.0467  72.4776 15.85143515  3368"
      },
      "geometry": {
        "type": "Point",
        "coordinates": [
          -17.824393464749924,
          39.75874604335176
        ]
      }
    },
    {
      "type": "Feature",
      "properties": {
        "norad_id": 66797,
        "name": "STARLINK-36099",
        "group": "last-30-days",
        "lat": 2.3297067128730093,
        "lon": -130.8831229762281,
        "alt_km": 342.2313123287204,
        "timestamp": "2025-12-16T21:38:55.918226+00:00",
        "meta_object_name": "STARLINK-36099",
        "meta_object_id": "2025-278G",
        "meta_epoch": "2025-12-16T06:00:02.999808",
        "meta_mean_motion": 15.77429458,
        "meta_eccentricity": 0.00017275,
        "meta_inclination": 42.9986,
        "meta_ra_of_asc_node": 230.5795,
        "meta_arg_of_pericenter": 273.4968,
        "meta_mean_anomaly": 345.0982,
        "meta_ephemeris_type": 0,
        "meta_classification_type": "U",
        "meta_norad_cat_id": 66797,
        "meta_element_set_no": 999,
        "meta_rev_at_epoch": 358,
        "meta_bstar": -0.0086628431,
        "meta_mean_motion_dot": -0.01323066,
        "meta_mean_motion_ddot": 0,
        "tle_line1": "1 66797U 25278G   25350.25003472 -.01323066  00000+0 -86628-2 0  9991",
        "tle_line2": "2 66797  42.9986 230.5795 0001727 273.4968 345.0982 15.77429458  3581"
      },
      "geometry": {
        "type": "Point",
        "coordinates": [
          -130.8831229762281,
          2.3297067128730093
        ]
      }
    },
    {
      "type": "Feature",
      "properties": {
        "norad_id": 66798,
        "name": "STARLINK-36041",
        "group": "last-30-days",
        "lat": 3.6471683439490894,
        "lon": -129.46824667200323,
        "alt_km": 342.32174587184,
        "timestamp": "2025-12-16T21:38:55.918236+00:00",
        "meta_object_name": "STARLINK-36041",
        "meta_object_id": "2025-278H",
        "meta_epoch": "2025-12-16T06:00:02.999808",
        "meta_mean_motion": 15.77405278,
        "meta_eccentricity": 0.00017365,
        "meta_inclination": 43.002,
        "meta_ra_of_asc_node": 230.5743,
        "meta_arg_of_pericenter": 270.9377,
        "meta_mean_anomaly": 349.6835,
        "meta_ephemeris_type": 0,
        "meta_classification_type": "U",
        "meta_norad_cat_id": 66798,
        "meta_element_set_no": 999,
        "meta_rev_at_epoch": 336,
        "meta_bstar": -0.0088091617,
        "meta_mean_motion_dot": -0.01341722,
        "meta_mean_motion_ddot": 0,
        "tle_line1": "1 66798U 25278H   25350.25003472 -.01341722  00000+0 -88092-2 0  9998",
        "tle_line2": "2 66798  43.0020 230.5743 0001736 270.9377 349.6835 15.77405278  3369"
      },
      "geometry": {
        "type": "Point",
        "coordinates": [
          -129.46824667200323,
          3.6471683439490894
        ]
      }
    },
    {
      "type": "Feature",
      "properties": {
        "norad_id": 66799,
        "name": "STARLINK-36044",
        "group": "last-30-days",
        "lat": 4.975729744983449,
        "lon": -128.03385232561666,
        "alt_km": 342.39171041584086,
        "timestamp": "2025-12-16T21:38:55.918246+00:00",
        "meta_object_name": "STARLINK-36044",
        "meta_object_id": "2025-278J",
        "meta_epoch": "2025-12-16T06:00:02.999808",
        "meta_mean_motion": 15.77349931,
        "meta_eccentricity": 0.00016454,
        "meta_inclination": 42.9983,
        "meta_ra_of_asc_node": 230.5693,
        "meta_arg_of_pericenter": 270.349,
        "meta_mean_anomaly": 352.373,
        "meta_ephemeris_type": 0,
        "meta_classification_type": "U",
        "meta_norad_cat_id": 66799,
        "meta_element_set_no": 999,
        "meta_rev_at_epoch": 352,
        "meta_bstar": -0.0088924837,
        "meta_mean_motion_dot": -0.01349986,
        "meta_mean_motion_ddot": 0,
        "tle_line1": "1 66799U 25278J   25350.25003472 -.01349986  00000+0 -88925-2 0  9994",
        "tle_line2": "2 66799  42.9983 230.5693 0001645 270.3490 352.3730 15.77349931  3525"
      },
      "geometry": {
        "type": "Point",
        "coordinates": [
          -128.03385232561666,
          4.975729744983449
        ]
      }
    }
  ]
}